{"type": "FeatureCollection", "features": [ {"type": "Feature", "properties": {"norad_id": 33905, "name": "COSMOS 2251 DEB", "group": "cosmos-2251-debris", "lat": 44.74675160860042, "lon": 136.64969193736593, "alt_km": 770.7679981202346, "timestamp": "2025-12-03T17:47:51.111042+00:00", "meta": {"OBJECT_NAME": "COSMOS 2251 DEB", "OBJECT_ID": "1993-036DJ", "EPOCH": "2025-12-02T18:34:39.366336", "MEAN_MOTION": 14.35321238, "ECCENTRICITY": 0.00594934, "INCLINATION": 73.8867, "RA_OF_ASC_NODE": 335.0897, "ARG_OF_PERICENTER": 226.4458, "MEAN_ANOMALY": 309.8103, "EPHEMERIS_TYPE": 0, "CLASSIFICATION_TYPE": "U", "NORAD_CAT_ID": 33905, "ELEMENT_SET_NO": 999, "REV_AT_EPOCH": 87544, "BSTAR": 0.00099550787, "MEAN_MOTION_DOT": 2.885e-05, "MEAN_MOTION_DDOT": 0}, "tle": {"line1": "1 33905U 93036DJ  25336.77406674  .00002885  00000+0  99551-3 0  9995", "line2": "2 33905  73.8867 335.0897 0059493 226.4458 309.8103 14.35321238875441"}}, "geometry": {"type": "Point", "coordinates": [136.64969193736593, 44.74675160860042]}}, {"type": "Feature", "properties": {"norad_id": 33906, "name": "COSMOS 2251 DEB", "group": "cosmos-2251-debris", "lat": 37.68525877595442, "lon": -8.65026292624703, "alt_km": 678.0913134521461, "timestamp": "2025-12-03T17:47:51.111052+00:00", "meta": {"OBJECT_NAME": "COSMOS 2251 DEB", "OBJECT_ID": "1993-036DK", "EPOCH": "2025-12-03T01:23:23.532000", "MEAN_MOTION": 14.56802177, "ECCENTRICITY": 0.00362632, "INCLINATION": 74.0306, "RA_OF_ASC_NODE": 339.8678, "ARG_OF_PERICENTER": 11.0992, "MEAN_ANOMALY": 44.3061, "EPHEMERIS_TYPE": 0, "CLASSIFICATION_TYPE": "U", "NORAD_CAT_ID": 33906, "ELEMENT_SET_NO": 999, "REV_AT_EPOCH": 87867, "BSTAR": 0.0026508773, "MEAN_MOTION_DOT": 0.00011966, "MEAN_MOTION_DDOT": 0}, "tle": {"line1": "1 33906U 93036DK  25337.05791125  .00011966  00000+0  26509-2 0  9998", "line2": "2 33906  74.0306 339.8678 0036263  11.0992  44.3061 14.56802177878674"}}, "geometry": {"type": "Point", "coordinates": [-8.65026292624703, 37.68525877595442]}}, {"type": "Feature", "properties": {"norad_id": 33907, "name": "COSMOS 2251 DEB", "group": "cosmos-2251-debris", "lat": 27.55057185634167, "lon": -138.5744310837, "alt_km": 729.2013857814463, "timestamp": "2025-12-03T17:47:51.111063+00:00", "meta": {"OBJECT_NAME": "COSMOS 2251 DEB", "OBJECT_ID": "1993-036DL", "EPOCH": "2025-12-02T16:29:31.533792", "MEAN_MOTION": 14.30354915, "ECCENTRICITY": 0.011318, "INCLINATION": 74.0705, "RA_OF_ASC_NODE": 51.9078, "ARG_OF_PERICENTER": 110.3545, "MEAN_ANOMALY": 12.7079, "EPHEMERIS_TYPE": 0, "CLASSIFICATION_TYPE": "U", "NORAD_CAT_ID": 33907, "ELEMENT_SET_NO": 999, "REV_AT_EPOCH": 86436, "BSTAR": 0.0022180325, "MEAN_MOTION_DOT": 6.159e-05, "MEAN_MOTION_DDOT": 0}, "tle": {"line1": "1 33907U 93036DL  25336.68717053  .00006159  00000+0  22180-2 0  9994", "line2": "2 33907  74.0705  51.9078 0113180 110.3545  12.7079 14.30354915864368"}}, "geometry": {"type": "Point", "coordinates": [-138.5744310837, 27.55057185634167]}}, {"type": "Feature", "properties": {"norad_id": 33908, "name": "COSMOS 2251 DEB", "group": "cosmos-2251-debris", "lat": -26.480424951481208, "lon": 50.03733827867957, "alt_km": 747.0959730453715, "timestamp": "2025-12-03T17:47:51.111073+00:00", "meta": {"OBJECT_NAME": "COSMOS 2251 DEB", "OBJECT_ID": "1993-036DM", "EPOCH": "2025-12-03T03:08:46.862016", "MEAN_MOTION": 14.07226005, "ECCENTRICITY": 0.02239494, "INCLINATION": 73.8384, "RA_OF_ASC_NODE": 222.8141, "ARG_OF_PERICENTER": 248.0331, "MEAN_ANOMALY": 109.6872, "EPHEMERIS_TYPE": 0, "CLASSIFICATION_TYPE": "U", "NORAD_CAT_ID": 33908, "ELEMENT_SET_NO": 999, "REV_AT_EPOCH": 85338, "BSTAR": 0.0019738327, "MEAN_MOTION_DOT": 4.133e-05, "MEAN_MOTION_DDOT": 0}, "tle": {"line1": "1 33908U 93036DM  25337.13109794  .00004133  00000+0  19738-2 0  9998", "line2": "2 33908  73.8384 222.8141 0223949 248.0331 109.6872 14.07226005853385"}}, "geometry": {"type": "Point", "coordinates": [50.03733827867957, -26.480424951481208]}}, {"type": "Feature", "properties": {"norad_id": 33911, "name": "COSMOS 2251 DEB", "group": "cosmos-2251-debris", "lat": -40.10642989957728, "lon": 165.46843440237143, "alt_km": 663.027231679428, "timestamp": "2025-12-03T17:47:51.111084+00:00", "meta": {"OBJECT_NAME": "COSMOS 2251 DEB", "OBJECT_ID": "1993-036DQ", "EPOCH": "2025-12-03T00:39:11.349216", "MEAN_MOTION": 14.74439602, "ECCENTRICITY": 0.00145431, "INCLINATION": 74.0901, "RA_OF_ASC_NODE": 180.759, "ARG_OF_PERICENTER": 127.3595, "MEAN_ANOMALY": 0.5143, "EPHEMERIS_TYPE": 0, "CLASSIFICATION_TYPE": "U", "NORAD_CAT_ID": 33911, "ELEMENT_SET_NO": 999, "REV_AT_EPOCH": 88501, "BSTAR": 0.002322678, "MEAN_MOTION_DOT": 0.00015454, "MEAN_MOTION_DDOT": 0}, "tle": {"line1": "1 33911U 93036DQ  25337.02721469  .00015454  00000+0  23227-2 0  9995", "line2": "2 33911  74.0901 180.7590 0014543 127.3595   0.5143 14.74439602885014"}}, "geometry": {"type": "Point", "coordinates": [165.46843440237143, -40.10642989957728]}}, {"type": "Feature", "properties": {"norad_id": 33912, "name": "COSMOS 2251 DEB", "group": "cosmos-2251-debris", "lat": -40.79902241934974, "lon": 40.98086488577621, "alt_km": 722.1251487379759, "timestamp": "2025-12-03T17:47:51.111095+00:00", "meta": {"OBJECT_NAME": "COSMOS 2251 DEB", "OBJECT_ID": "1993-036DR", "EPOCH": "2025-12-03T02:35:30.229728", "MEAN_MOTION": 14.51806999, "ECCENTRICITY": 0.00116089, "INCLINATION": 74.0338, "RA_OF_ASC_NODE": 207.8669, "ARG_OF_PERICENTER": 286.6, "MEAN_ANOMALY": 226.2064, "EPHEMERIS_TYPE": 0, "CLASSIFICATION_TYPE": "U", "NORAD_CAT_ID": 33912, "ELEMENT_SET_NO": 999, "REV_AT_EPOCH": 88293, "BSTAR": 0.00093750224, "MEAN_MOTION_DOT": 3.749e-05, "MEAN_MOTION_DDOT": 0}, "tle": {"line1": "1 33912U 93036DR  25337.10798877  .00003749  00000+0  93750-3 0  9995", "line2": "2 33912  74.0338 207.8669 0011608 286.6000 226.2064 14.51806999882935"}}, "geometry": {"type": "Point", "coordinates": [40.98086488577621, -40.79902241934974]}}, {"type": "Feature", "properties": {"norad_id": 33913, "name": "COSMOS 2251 DEB", "group": "cosmos-2251-debris", "lat": 55.430083305970264, "lon": -134.9479085143897, "alt_km": 739.1317280024123, "timestamp": "2025-12-03T17:47:51.111106+00:00", "meta": {"OBJECT_NAME": "COSMOS 2251 DEB", "OBJECT_ID": "1993-036DS", "EPOCH": "2025-12-02T16:55:27.076800", "MEAN_MOTION": 14.48421393, "ECCENTRICITY": 0.00481477, "INCLINATION": 74.0338, "RA_OF_ASC_NODE": 202.4437, "ARG_OF_PERICENTER": 306.8387, "MEAN_ANOMALY": 109.7655, "EPHEMERIS_TYPE": 0, "CLASSIFICATION_TYPE": "U", "NORAD_CAT_ID": 33913, "ELEMENT_SET_NO": 999, "REV_AT_EPOCH": 88312, "BSTAR": 0.0007120172, "MEAN_MOTION_DOT": 2.679e-05, "MEAN_MOTION_DDOT": 0}, "tle": {"line1": "1 33913U 93036DS  25336.70517450  .00002679  00000+0  71202-3 0  9996", "line2": "2 33913  74.0338 202.4437 0048147 306.8387 109.7655 14.48421393883121"}}, "geometry": {"type": "Point", "coordinates": [-134.9479085143897, 55.430083305970264]}}, {"type": "Feature", "properties": {"norad_id": 33914, "name": "COSMOS 2251 DEB", "group": "cosmos-2251-debris", "lat": -20.52138731124972, "lon": 23.79581051768161, "alt_km": 1200.1939866923085, "timestamp": "2025-12-03T17:47:51.111117+00:00", "meta": {"OBJECT_NAME": "COSMOS 2251 DEB", "OBJECT_ID": "1993-036DT", "EPOCH": "2025-12-03T10:59:28.334112", "MEAN_MOTION": 13.71969642, "ECCENTRICITY": 0.0301988, "INCLINATION": 74.0917, "RA_OF_ASC_NODE": 30.3909, "ARG_OF_PERICENTER": 135.6589, "MEAN_ANOMALY": 244.3055, "EPHEMERIS_TYPE": 0, "CLASSIFICATION_TYPE": "U", "NORAD_CAT_ID": 33914, "ELEMENT_SET_NO": 999, "REV_AT_EPOCH": 83954, "BSTAR": 0.00089065, "MEAN_MOTION_DOT": 1.099e-05, "MEAN_MOTION_DDOT": 0}, "tle": {"line1": "1 33914U 93036DT  25337.45796683  .00001099  00000+0  89065-3 0  9998", "line2": "2 33914  74.0917  30.3909 0301988 135.6589 244.3055 13.71969642839540"}}, "geometry": {"type": "Point", "coordinates": [23.79581051768161, -20.52138731124972]}}, {"type": "Feature", "properties": {"norad_id": 33915, "name": "COSMOS 2251 DEB", "group": "cosmos-2251-debris", "lat": -39.1259492588066, "lon": -115.94608146153114, "alt_km": 761.3825862700514, "timestamp": "2025-12-03T17:47:51.111127+00:00", "meta": {"OBJECT_NAME": "COSMOS 2251 DEB", "OBJECT_ID": "1993-036DU", "EPOCH": "2025-12-03T05:12:49.713120", "MEAN_MOTION": 14.35042449, "ECCENTRICITY": 0.0104971, "INCLINATION": 74.045, "RA_OF_ASC_NODE": 51.5578, "ARG_OF_PERICENTER": 146.5997, "MEAN_ANOMALY": 245.5282, "EPHEMERIS_TYPE": 0, "CLASSIFICATION_TYPE": "U", "NORAD_CAT_ID": 33915, "ELEMENT_SET_NO": 999, "REV_AT_EPOCH": 87621, "BSTAR": 0.00074207, "MEAN_MOTION_DOT": 2.226e-05, "MEAN_MOTION_DDOT": 0}, "tle": {"line1": "1 33915U 93036DU  25337.21724205  .00002226  00000+0  74207-3 0  9999", "line2": "2 33915  74.0450  51.5578 0104971 146.5997 245.5282 14.35042449876215"}}, "geometry": {"type": "Point", "coordinates": [-115.94608146153114, -39.1259492588066]}}, {"type": "Feature", "properties": {"norad_id": 33916, "name": "COSMOS 2251 DEB", "group": "cosmos-2251-debris", "lat": -1.9778786078175619, "lon": 54.80764173487858, "alt_km": 1152.5803754791687, "timestamp": "2025-12-03T17:47:51.111138+00:00", "meta": {"OBJECT_NAME": "COSMOS 2251 DEB", "OBJECT_ID": "1993-036DV", "EPOCH": "2025-12-03T07:38:19.491360", "MEAN_MOTION": 13.68595075, "ECCENTRICITY": 0.0325505, "INCLINATION": 74.0531, "RA_OF_ASC_NODE": 56.0685, "ARG_OF_PERICENTER": 230.2106, "MEAN_ANOMALY": 200.1845, "EPHEMERIS_TYPE": 0, "CLASSIFICATION_TYPE": "U", "NORAD_CAT_ID": 33916, "ELEMENT_SET_NO": 999, "REV_AT_EPOCH": 83762, "BSTAR": 0.00082282, "MEAN_MOTION_DOT": 9.98e-06, "MEAN_MOTION_DDOT": 0}, "tle": {"line1": "1 33916U 93036DV  25337.31828115  .00000998  00000+0  82282-3 0  9992", "line2": "2 33916  74.0531  56.0685 0325505 230.2106 200.1845 13.68595075837623"}}, "geometry": {"type": "Point", "coordinates": [54.80764173487858, -1.9778786078175619]}}]}